$$SOE
2460728.500000000, A.D. 2025-Feb-22 00:00:00.0000, -4.490270883318540E+07, -7.050135828048405E+07, 9.887290345269801E+07,
2460735.500000000, A.D. 2025-Mar-01 00:00:00.0000, -2.561312608753044E+07, -7.893040466137187E+07, 9.846393240505002E+07,
2460742.500000000, A.D. 2025-Mar-08 00:00:00.0000, -5.743647165114795E+06, -8.556984755682591E+07, 9.582285395493047E+07,
2460749.500000000, A.D. 2025-Mar-15 00:00:00.0000, 1.425673812201955E+07, -9.026182954280800E+07, 9.100084722759649E+07,
2460756.500000000, A.D. 2025-Mar-22 00:00:00.0000, 3.393649128234706E+07, -9.291704245275316E+07, 8.412483920190907E+07,
2460763.500000000, A.D. 2025-Mar-29 00:00:00.0000, 5.286781186250592E+07, -9.351806930613412E+07, 7.538809528604919E+07,
2460770.500000000, A.D. 2025-Apr-05 00:00:00.0000, 7.066905208033209E+07, -9.211574741539136E+07, 6.503514937333444E+07,
2460777.500000000, A.D. 2025-Apr-12 00:00:00.0000, 8.702051145545767E+07, -8.881978649520008E+07, 5.334377628695428E+07,
2460784.500000000, A.D. 2025-Apr-19 00:00:00.0000, 1.016725467268127E+08, -8.378579209766079E+07, 4.060687000952994E+07,
2460791.500000000, A.D. 2025-Apr-26 00:00:00.0000, 1.144465392152034E+08, -7.720104984972671E+07, 2.711651797997322E+07,
2460798.500000000, A.D. 2025-May-03 00:00:00.0000, 1.252303310302397E+08, -6.927103848235020E+07, 1.315161059435395E+07,
2460805.500000000, A.D. 2025-May-10 00:00:00.0000, 1.339701408402749E+08, -6.020794966514627E+07, -1.030622706854373E+06,
2460812.500000000, A.D. 2025-May-17 00:00:00.0000, 1.406608332168504E+08, -5.022178587854093E+07, -1.519945965270637E+07,
2460819.500000000, A.D. 2025-May-24 00:00:00.0000, 1.453359852726278E+08, -3.951405998097757E+07, -2.915260437825461E+07,
2460826.500000000, A.D. 2025-May-31 00:00:00.0000, 1.480586897826661E+08, -2.827378541760407E+07, -4.271598274430185E+07,
2460833.500000000, A.D. 2025-Jun-07 00:00:00.0000, 1.489135915383637E+08, -1.667529879751801E+07, -5.574215625713035E+07,
2460840.500000000, A.D. 2025-Jun-14 00:00:00.0000, 1.480003265254734E+08, -4.877441379164368E+06, -6.810795527786236E+07,
2460847.500000000, A.D. 2025-Jun-21 00:00:00.0000, 1.454283307342764E+08, 6.976317959014911E+06, -7.971177213112232E+07,
2460854.500000000, A.D. 2025-Jun-28 00:00:00.0000, 1.413128769077973E+08, 1.875715864967902E+07, -9.047081034043804E+07,
2460861.500000000, A.D. 2025-Jul-05 00:00:00.0000, 1.357721482822522E+08, 3.034983950595219E+07, -1.003184718562683E+08,
2460868.500000000, A.D. 2025-Jul-12 00:00:00.0000, 1.289251541925644E+08, 4.165146431929086E+07, -1.092019818480029E+08,
2460875.500000000, A.D. 2025-Jul-19 00:00:00.0000, 1.208903105955974E+08, 5.257020284740762E+07, -1.170802950654298E+08,
2460882.500000000, A.D. 2025-Jul-26 00:00:00.0000, 1.117845343529675E+08, 6.302404470204033E+07, -1.239222927947250E+08,
2460889.500000000, A.D. 2025-Aug-02 00:00:00.0000, 1.017227274947795E+08, 7.293963245944977E+07, -1.297052592159627E+08,
2460896.500000000, A.D. 2025-Aug-09 00:00:00.0000, 9.081755325997482E+07, 8.225119891730063E+07, -1.344136156023049E+08,
2460903.500000000, A.D. 2025-Aug-16 00:00:00.0000, 7.917942791293600E+07, 9.089961945884727E+07, -1.380378867187722E+08,
2460910.500000000, A.D. 2025-Aug-23 00:00:00.0000, 6.691667081081504E+07, 9.883158203004514E+07, -1.405738735491334E+08,
2460917.500000000, A.D. 2025-Aug-30 00:00:00.0000, 5.413576978137193E+07, 1.059988731319180E+08, -1.420220083914385E+08,
2460924.500000000, A.D. 2025-Sep-06 00:00:00.0000, 4.094172840577784E+07, 1.123577762684802E+08, -1.423868712621698E+08,
2460931.500000000, A.D. 2025-Sep-13 00:00:00.0000, 2.743847003730575E+07, 1.178685752899261E+08, -1.416768504263577E+08,
2460938.500000000, A.D. 2025-Sep-20 00:00:00.0000, 1.372928459456486E+07, 1.224951564660769E+08, -1.399039340650508E+08,
2460945.500000000, A.D. 2025-Sep-27 00:00:00.0000, -8.269357427251305E+04, 1.262047092076912E+08, -1.370836231459208E+08,
2460952.500000000, A.D. 2025-Oct-04 00:00:00.0000, -1.389398865609627E+07, 1.289675247168482E+08, -1.332349589674903E+08,
2460959.500000000, A.D. 2025-Oct-11 00:00:00.0000, -2.760027589069331E+07, 1.307568927200516E+08, -1.283806624514193E+08,
2460966.500000000, A.D. 2025-Oct-18 00:00:00.0000, -4.109587139809593E+07, 1.315490998288364E+08, -1.225473853901801E+08,
2460973.500000000, A.D. 2025-Oct-25 00:00:00.0000, -5.427322814037806E+07, 1.313235364494887E+08, -1.157660767266068E+08,
2460980.500000000, A.D. 2025-Nov-01 00:00:00.0000, -6.702244920860016E+07, 1.300629226360429E+08, -1.080724695795563E+08,
2460987.500000000, A.D. 2025-Nov-08 00:00:00.0000, -7.923083344994260E+07, 1.277536670834156E+08, -9.950769702143724E+07,
2460994.500000000, A.D. 2025-Nov-15 00:00:00.0000, -9.078247404118447E+07, 1.243863776337774E+08, -9.011904635879777E+07,
2461001.500000000, A.D. 2025-Nov-22 00:00:00.0000, -1.015579384043357E+08, 1.199565464003363E+08, -7.996086250823230E+07,
2461008.500000000, A.D. 2025-Nov-29 00:00:00.0000, -1.114340693794906E+08, 1.144654379864113E+08, -6.909561034629840E+07,
2461015.500000000, A.D. 2025-Dec-06 00:00:00.0000, -1.202839642546808E+08, 1.079212120233503E+08, -5.759510299872956E+07,
2461022.500000000, A.D. 2025-Dec-13 00:00:00.0000, -1.279772043353894E+08, 1.003403108152153E+08, -4.554189721795763E+07,
2461029.500000000, A.D. 2025-Dec-20 00:00:00.0000, -1.343804282009875E+08, 9.174914731477205E+07, -3.303084515050236E+07,
2461036.500000000, A.D. 2025-Dec-27 00:00:00.0000, -1.393583749449417E+08, 8.218612526933248E+07, -2.017077192282158E+07,
2461043.500000000, A.D. 2026-Jan-03 00:00:00.0000, -1.427755566136093E+08, 7.170400734573713E+07, -7.086218713960912E+06,
2461050.500000000, A.D. 2026-Jan-10 00:00:00.0000, -1.444987509333038E+08, 6.037262123048747E+07, 6.080853633167785E+06,
2461057.500000000, A.D. 2026-Jan-17 00:00:00.0000, -1.444005336947988E+08, 4.828184932128033E+07, 1.916956835459843E+07,
2461064.500000000, A.D. 2026-Jan-24 00:00:00.0000, -1.423640822729507E+08, 3.554477649139294E+07, 3.199909509593318E+07,
2461071.500000000, A.D. 2026-Jan-31 00:00:00.0000, -1.382894588049223E+08, 2.230076595804284E+07, 4.436842421359238E+07,
2461078.500000000, A.D. 2026-Feb-07 00:00:00.0000, -1.321014969217882E+08, 8.718092592962889E+06, 5.605741745257268E+07,
2461085.500000000, A.D. 2026-Feb-14 00:00:00.0000, -1.237592366436644E+08, -5.004406984858088E+06, 6.682969535221380E+07,
2461092.500000000, A.D. 2026-Feb-21 00:00:00.0000, -1.132665470071406E+08, -1.863738146914478E+07, 7.643795914038786E+07,
2461099.500000000, A.D. 2026-Feb-28 00:00:00.0000, -1.006831350148182E+08, -3.192354587894568E+07, 8.463225932939360E+07,
2461106.500000000, A.D. 2026-Mar-07 00:00:00.0000, -8.613459822452882E+07, -4.458362267655513E+07, 9.117143912684758E+07,
2461113.500000000, A.D. 2026-Mar-14 00:00:00.0000, -6.981965187539732E+07, -5.632621399383995E+07, 9.583744427516213E+07,
2461120.500000000, A.D. 2026-Mar-21 00:00:00.0000, -5.201237664032902E+07, -6.686159540454708E+07, 9.845142488791585E+07,
2461127.500000000, A.D. 2026-Mar-28 00:00:00.0000, -3.305755170798361E+07, -7.591854922581440E+07, 9.888971141602641E+07,
2461134.500000000, A.D. 2026-Apr-04 00:00:00.0000, -1.335804074887090E+07, -8.326236994141389E+07, 9.709712197363026E+07,
2461141.500000000, A.D. 2026-Apr-11 00:00:00.0000, 6.645265724324545E+06, -8.871141973831999E+07, 9.309500146743491E+07,
2461148.500000000, A.D. 2026-Apr-18 00:00:00.0000, 2.649867915540006E+07, -9.214947128368220E+07, 8.698211787940317E+07,
2461155.500000000, A.D. 2026-Apr-25 00:00:00.0000, 4.576248005065321E+07, -9.353174265732509E+07, 7.892794141079444E+07,
2461162.500000000, A.D. 2026-May-02 00:00:00.0000, 6.403520487218110E+07, -9.288384904304525E+07, 6.915945732318431E+07,
2461169.500000000, A.D. 2026-May-09 00:00:00.0000, 8.097218261114839E+07, -9.029439872392410E+07, 5.794392507420048E+07,
2461176.500000000, A.D. 2026-May-16 00:00:00.0000, 9.629659083618139E+07, -8.590311232491745E+07, 4.557048404546574E+07,
2461183.500000000, A.D. 2026-May-23 00:00:00.0000, 1.098030045421308E+08, -7.988682156865624E+07, 3.233318075892959E+07,
2461190.500000000, A.D. 2026-May-30 00:00:00.0000, 1.213547167229925E+08, -7.244551520612903E+07, 1.851713793770574E+07,
2461197.500000000, A.D. 2026-Jun-06 00:00:00.0000, 1.308767619520392E+08, -6.378999211859187E+07, 4.388598337163772E+06,
2461204.500000000, A.D. 2026-Jun-13 00:00:00.0000, 1.383466200473221E+08, -5.413195018912397E+07, -9.811235323762834E+06,
2461211.500000000, A.D. 2026-Jun-20 00:00:00.0000, 1.437842257625203E+08, -4.367671626052750E+07, -2.386914452244630E+07,
2461218.500000000, A.D. 2026-Jun-27 00:00:00.0000, 1.472424124462957E+08, -3.261841025190565E+07, -3.760040862873641E+07,
2461225.500000000, A.D. 2026-Jul-04 00:00:00.0000, 1.487984429701863E+08, -2.113712495342670E+07, -5.084766784629910E+07,
2461232.500000000, A.D. 2026-Jul-11 00:00:00.0000, 1.485469093970844E+08, -9.397642890610900E+06, -6.347879513807778E+07,
2461239.500000000, A.D. 2026-Jul-18 00:00:00.0000, 1.465940333243842E+08, 2.450756069118652E+06, -7.538427788683031E+07,
2461246.500000000, A.D. 2026-Jul-25 00:00:00.0000, 1.430532552503041E+08, 1.427376755574980E+07, -8.647445721720494E+07,
2461253.500000000, A.D. 2026-Aug-01 00:00:00.0000, 1.380419348213699E+08, 2.595110151690452E+07, -9.667684691195694E+07,
2461260.500000000, A.D. 2026-Aug-08 00:00:00.0000, 1.316789666700225E+08, 3.737529379589236E+07, -1.059336597386837E+08,
2461267.500000000, A.D. 2026-Aug-15 00:00:00.0000, 1.240831270716310E+08, 4.845043297606384E+07, -1.141996037013521E+08,
2461274.500000000, A.D. 2026-Aug-22 00:00:00.0000, 1.153719888703030E+08, 5.909089642828578E+07, -1.214399683716711E+08,
2461281.500000000, A.D. 2026-Aug-29 00:00:00.0000, 1.056612681141884E+08, 6.922015109042443E+07, -1.276289964252522E+08,
2461288.500000000, A.D. 2026-Sep-05 00:00:00.0000, 9.506449691068201E+07, 7.876964807538959E+07, -1.327485222913405E+08,
2461295.500000000, A.D. 2026-Sep-12 00:00:00.0000, 8.369294091170032E+07, 8.767782919074136E+07, -1.367868531659810E+08,
$$EOE